SZ-21 MODULE            
1 66515U 25246C   25334.77516894  .00028896  00000+0  32879-3 0  9990
2 66515  41.4762  88.9853 0005517 188.5399 171.5347 15.61627193  2574
SHENZHOU-22             
1 66645U 25272A   25334.79791255  .00015362  00000+0  19939-3 0  9997
2 66645  41.4661  89.1653 0010482 302.5609  57.4216 15.58440734262166
CZ-2F R/B               
1 66646U 25272B   25330.47076975  .00449059  75676-5  29319-3 0  9998
2 66646  41.4431 114.9009 0121079 133.7676 227.3272 16.01945612   217
SOYUZ-MS 28             
1 66664U 25275A   25334.86664352  .00008450  00000+0  16017-3 0  9990
2 66664  51.6312 201.2569 0003670 188.2523 171.8406 15.49213294   601
